KUIPER-00053            
1 64513U 25134P   25241.50697867  .00062891  00000+0  16845-2 0  9997
2 64513  51.8786   7.1460 0002272 335.9481  24.1399 15.37413339 11559
KUIPER-00054            
1 64514U 25134Q   25241.64458809  .00025121  00000+0  68448-3 0  9996
2 64514  51.8769   6.5613 0003875 344.3758  15.7109 15.37321447 11570
KUIPER-00055            
1 64515U 25134R   25241.94183717  .00061304  00000+0  16185-2 0  9996
2 64515  51.8793   4.8162 0001558 326.3262  33.7626 15.37872049 11623
KUIPER-00056            
1 64516U 25134S   25241.65499252  .00014053  00000+0  39265-3 0  9993
2 64516  51.8755   6.6204 0005106 350.2569   9.8317 15.36954867 11571
KUIPER-00057            
1 64517U 25134T   25241.91668981 -.00686281  00000+0 -28698-1 0  9996
2 64517  51.8765   6.2595 0010050 353.4478 278.0885 15.25621949  3638
KUIPER-00058            
1 64518U 25134U   25241.60515389  .00048563  00000+0  13400-2 0  9995
2 64518  51.8753   7.0218 0007014 349.0110  11.0722 15.36586876 11564
KUIPER-00059            
1 64519U 25134V   25241.62033204  .00067611  00000+0  17831-2 0  9996
2 64519  51.8788   6.4067 0002360 332.1643  27.9217 15.37858972 11577
KUIPER-00060            
1 64520U 25134W   25241.62815742  .00030277  00000+0  81129-3 0  9993
2 64520  51.8791   6.4589 0003064 317.4292  42.6457 15.37738945 11566
